KUIPER-00035            
1 63748U 25088AA  25216.91668981 -.00049153  00000+0 -44408-2 0  9990
2 63748  51.8912 353.2972 0004282  77.1969 177.8273 14.95131786 15390
KUIPER-00037            
1 63749U 25088AB  25216.91668981  .00001941  00000+0  18724-3 0  9995
2 63749  51.8915 352.4839 0005624  23.0947 164.5239 14.97400720 16197
KUIPER-00038            
1 63750U 25088AC  25216.91668981 -.00809622  00000+0 -28304-1 0  9994
2 63750  51.8738 344.7303 0004795  77.7528 353.2234 15.31498014 15307
KUIPER-00039            
1 64500U 25134A   25216.77621878  .00035342  00000+0  10234-2 0  9990
2 64500  51.8663 127.0982 0007057 262.5564  97.4620 15.35225543  7284
KUIPER-00040            
1 64501U 25134B   25216.91668981 -.00023060  00000+0 -11652-2 0  9994
2 64501  51.8787 127.9890 0012760 272.4963  80.4831 15.16156759  7286
KUIPER-00041            
1 64502U 25134C   25216.16528350  .00016196  00000+0  83819-3 0  9992
2 64502  51.8733 131.8706 0008278 266.1894  93.8137 15.16334205  7629
KUIPER-00042            
1 64503U 25134D   25216.91668981 -.00268540  00000+0 -11700-1 0  9993
2 64503  51.8729 127.0770 0009986 265.4817 188.1730 15.22843563  7296
KUIPER-00043            
1 64504U 25134E   25216.06304646  .00004491  00000+0  14188-3 0  9991
2 64504  51.8692 130.5731 0007810 259.4977 100.5129 15.34848618  7633
